name,address,district,business_type,phone,card_type
송산승마장,광주 광산구 가삼안길 68-100,광산구,기타레져업,,gwangju
양이랑 말이랑,광주 광산구 가삼안길 68-89,광산구,서양음식,,gwangju
카페양말,광주 광산구 가삼안길 68-89,광산구,서양음식,,gwangju
상쾌한 아침,광주 광산구 가삼안길 69,광산구,일반가구,,gwangju
해피주유소,광주 광산구 건재로 761,광산구,쌍용S-oil주유소,,gwangju
해피주유소,광주 광산구 건재로 761,광산구,주유소,,gwangju
태양소금,광주 광산구 계안길 25-9,광산구,기타음료식품,,gwangju
엘리트창호,광주 광산구 계안길 27-6,광산구,기타용역서비스,,gwangju
동화석유,광주 광산구 고내상길 3,광산구,유류판매,,gwangju
동화석유,광주 광산구 고내상길 3,광산구,유류판매,,gwangju
송산승마장,광주 광산구 가삼안길 68-100,광산구,기타레져업,,gwangju
양이랑 말이랑,광주 광산구 가삼안길 68-89,광산구,서양음식,,gwangju
카페양말,광주 광산구 가삼안길 68-89,광산구,서양음식,,gwangju
상쾌한 아침,광주 광산구 가삼안길 69,광산구,일반가구,,gwangju
해피주유소,광주 광산구 건재로 761,광산구,쌍용S-oil주유소,,gwangju
해피주유소,광주 광산구 건재로 761,광산구,주유소,,gwangju
태양소금,광주 광산구 계안길 25-9,광산구,기타음료식품,,gwangju
엘리트창호,광주 광산구 계안길 27-6,광산구,기타용역서비스,,gwangju
동화석유,광주 광산구 고내상길 3,광산구,유류판매,,gwangju
동화석유,광주 광산구 고내상길 3,광산구,유류판매,,gwangju
송산승마장,광주 광산구 가삼안길 68-100,광산구,기타레져업,,gwangju
양이랑 말이랑,광주 광산구 가삼안길 68-89,광산구,서양음식,,gwangju
카페양말,광주 광산구 가삼안길 68-89,광산구,서양음식,,gwangju
상쾌한 아침,광주 광산구 가삼안길 69,광산구,일반가구,,gwangju
해피주유소,광주 광산구 건재로 761,광산구,쌍용S-oil주유소,,gwangju
해피주유소,광주 광산구 건재로 761,광산구,주유소,,gwangju
태양소금,광주 광산구 계안길 25-9,광산구,기타음료식품,,gwangju
엘리트창호,광주 광산구 계안길 27-6,광산구,기타용역서비스,,gwangju
동화석유,광주 광산구 고내상길 3,광산구,유류판매,,gwangju
동화석유,광주 광산구 고내상길 3,광산구,유류판매,,gwangju
송산승마장,광주 광산구 가삼안길 68-100,광산구,기타레져업,,gwangju
양이랑 말이랑,광주 광산구 가삼안길 68-89,광산구,서양음식,,gwangju
카페양말,광주 광산구 가삼안길 68-89,광산구,서양음식,,gwangju
상쾌한 아침,광주 광산구 가삼안길 69,광산구,일반가구,,gwangju
해피주유소,광주 광산구 건재로 761,광산구,쌍용S-oil주유소,,gwangju
해피주유소,광주 광산구 건재로 761,광산구,주유소,,gwangju
태양소금,광주 광산구 계안길 25-9,광산구,기타음료식품,,gwangju
엘리트창호,광주 광산구 계안길 27-6,광산구,기타용역서비스,,gwangju
동화석유,광주 광산구 고내상길 3,광산구,유류판매,,gwangju
동화석유,광주 광산구 고내상길 3,광산구,유류판매,,gwangju
송산승마장,광주 광산구 가삼안길 68-100,광산구,기타레져업,,gwangju
양이랑 말이랑,광주 광산구 가삼안길 68-89,광산구,서양음식,,gwangju
카페양말,광주 광산구 가삼안길 68-89,광산구,서양음식,,gwangju
상쾌한 아침,광주 광산구 가삼안길 69,광산구,일반가구,,gwangju
해피주유소,광주 광산구 건재로 761,광산구,쌍용S-oil주유소,,gwangju
해피주유소,광주 광산구 건재로 761,광산구,주유소,,gwangju
태양소금,광주 광산구 계안길 25-9,광산구,기타음료식품,,gwangju
엘리트창호,광주 광산구 계안길 27-6,광산구,기타용역서비스,,gwangju
동화석유,광주 광산구 고내상길 3,광산구,유류판매,,gwangju
동화석유,광주 광산구 고내상길 3,광산구,유류판매,,gwangju
송산승마장,광주 광산구 가삼안길 68-100,광산구,기타레져업,,gwangju
양이랑 말이랑,광주 광산구 가삼안길 68-89,광산구,서양음식,,gwangju
카페양말,광주 광산구 가삼안길 68-89,광산구,서양음식,,gwangju
상쾌한 아침,광주 광산구 가삼안길 69,광산구,일반가구,,gwangju
해피주유소,광주 광산구 건재로 761,광산구,쌍용S-oil주유소,,gwangju
해피주유소,광주 광산구 건재로 761,광산구,주유소,,gwangju
태양소금,광주 광산구 계안길 25-9,광산구,기타음료식품,,gwangju
엘리트창호,광주 광산구 계안길 27-6,광산구,기타용역서비스,,gwangju
동화석유,광주 광산구 고내상길 3,광산구,유류판매,,gwangju
동화석유,광주 광산구 고내상길 3,광산구,유류판매,,gwangju
송산승마장,광주 광산구 가삼안길 68-100,광산구,기타레져업,,gwangju
양이랑 말이랑,광주 광산구 가삼안길 68-89,광산구,서양음식,,gwangju
카페양말,광주 광산구 가삼안길 68-89,광산구,서양음식,,gwangju
상쾌한 아침,광주 광산구 가삼안길 69,광산구,일반가구,,gwangju
해피주유소,광주 광산구 건재로 761,광산구,쌍용S-oil주유소,,gwangju
해피주유소,광주 광산구 건재로 761,광산구,주유소,,gwangju
태양소금,광주 광산구 계안길 25-9,광산구,기타음료식품,,gwangju
엘리트창호,광주 광산구 계안길 27-6,광산구,기타용역서비스,,gwangju
동화석유,광주 광산구 고내상길 3,광산구,유류판매,,gwangju
동화석유,광주 광산구 고내상길 3,광산구,유류판매,,gwangju
송산승마장,광주 광산구 가삼안길 68-100,광산구,기타레져업,,gwangju
양이랑 말이랑,광주 광산구 가삼안길 68-89,광산구,서양음식,,gwangju
카페양말,광주 광산구 가삼안길 68-89,광산구,서양음식,,gwangju
상쾌한 아침,광주 광산구 가삼안길 69,광산구,일반가구,,gwangju
해피주유소,광주 광산구 건재로 761,광산구,쌍용S-oil주유소,,gwangju
해피주유소,광주 광산구 건재로 761,광산구,주유소,,gwangju
태양소금,광주 광산구 계안길 25-9,광산구,기타음료식품,,gwangju
엘리트창호,광주 광산구 계안길 27-6,광산구,기타용역서비스,,gwangju
동화석유,광주 광산구 고내상길 3,광산구,유류판매,,gwangju
동화석유,광주 광산구 고내상길 3,광산구,유류판매,,gwangju
송산승마장,광주 광산구 가삼안길 68-100,광산구,기타레져업,,gwangju
양이랑 말이랑,광주 광산구 가삼안길 68-89,광산구,서양음식,,gwangju
카페양말,광주 광산구 가삼안길 68-89,광산구,서양음식,,gwangju
상쾌한 아침,광주 광산구 가삼안길 69,광산구,일반가구,,gwangju
해피주유소,광주 광산구 건재로 761,광산구,쌍용S-oil주유소,,gwangju
해피주유소,광주 광산구 건재로 761,광산구,주유소,,gwangju
태양소금,광주 광산구 계안길 25-9,광산구,기타음료식품,,gwangju
엘리트창호,광주 광산구 계안길 27-6,광산구,기타용역서비스,,gwangju
동화석유,광주 광산구 고내상길 3,광산구,유류판매,,gwangju
동화석유,광주 광산구 고내상길 3,광산구,유류판매,,gwangju
송산승마장,광주 광산구 가삼안길 68-100,광산구,기타레져업,,gwangju
양이랑 말이랑,광주 광산구 가삼안길 68-89,광산구,서양음식,,gwangju
카페양말,광주 광산구 가삼안길 68-89,광산구,서양음식,,gwangju
상쾌한 아침,광주 광산구 가삼안길 69,광산구,일반가구,,gwangju
해피주유소,광주 광산구 건재로 761,광산구,쌍용S-oil주유소,,gwangju
해피주유소,광주 광산구 건재로 761,광산구,주유소,,gwangju
태양소금,광주 광산구 계안길 25-9,광산구,기타음료식품,,gwangju
엘리트창호,광주 광산구 계안길 27-6,광산구,기타용역서비스,,gwangju
동화석유,광주 광산구 고내상길 3,광산구,유류판매,,gwangju
동화석유,광주 광산구 고내상길 3,광산구,유류판매,,gwangju
송산승마장,광주 광산구 가삼안길 68-100,광산구,기타레져업,,gwangju
양이랑 말이랑,광주 광산구 가삼안길 68-89,광산구,서양음식,,gwangju
카페양말,광주 광산구 가삼안길 68-89,광산구,서양음식,,gwangju
상쾌한 아침,광주 광산구 가삼안길 69,광산구,일반가구,,gwangju
해피주유소,광주 광산구 건재로 761,광산구,쌍용S-oil주유소,,gwangju
해피주유소,광주 광산구 건재로 761,광산구,주유소,,gwangju
태양소금,광주 광산구 계안길 25-9,광산구,기타음료식품,,gwangju
엘리트창호,광주 광산구 계안길 27-6,광산구,기타용역서비스,,gwangju
동화석유,광주 광산구 고내상길 3,광산구,유류판매,,gwangju
동화석유,광주 광산구 고내상길 3,광산구,유류판매,,gwangju
송산승마장,광주 광산구 가삼안길 68-100,광산구,기타레져업,,gwangju
양이랑 말이랑,광주 광산구 가삼안길 68-89,광산구,서양음식,,gwangju
카페양말,광주 광산구 가삼안길 68-89,광산구,서양음식,,gwangju
상쾌한 아침,광주 광산구 가삼안길 69,광산구,일반가구,,gwangju
해피주유소,광주 광산구 건재로 761,광산구,쌍용S-oil주유소,,gwangju
해피주유소,광주 광산구 건재로 761,광산구,주유소,,gwangju
태양소금,광주 광산구 계안길 25-9,광산구,기타음료식품,,gwangju
엘리트창호,광주 광산구 계안길 27-6,광산구,기타용역서비스,,gwangju
동화석유,광주 광산구 고내상길 3,광산구,유류판매,,gwangju
동화석유,광주 광산구 고내상길 3,광산구,유류판매,,gwangju
송산승마장,광주 광산구 가삼안길 68-100,광산구,기타레져업,,gwangju
양이랑 말이랑,광주 광산구 가삼안길 68-89,광산구,서양음식,,gwangju
카페양말,광주 광산구 가삼안길 68-89,광산구,서양음식,,gwangju
상쾌한 아침,광주 광산구 가삼안길 69,광산구,일반가구,,gwangju
해피주유소,광주 광산구 건재로 761,광산구,쌍용S-oil주유소,,gwangju
해피주유소,광주 광산구 건재로 761,광산구,주유소,,gwangju
태양소금,광주 광산구 계안길 25-9,광산구,기타음료식품,,gwangju
엘리트창호,광주 광산구 계안길 27-6,광산구,기타용역서비스,,gwangju
동화석유,광주 광산구 고내상길 3,광산구,유류판매,,gwangju
동화석유,광주 광산구 고내상길 3,광산구,유류판매,,gwangju
송산승마장,광주 광산구 가삼안길 68-100,광산구,기타레져업,,gwangju
양이랑 말이랑,광주 광산구 가삼안길 68-89,광산구,서양음식,,gwangju
카페양말,광주 광산구 가삼안길 68-89,광산구,서양음식,,gwangju
상쾌한 아침,광주 광산구 가삼안길 69,광산구,일반가구,,gwangju
해피주유소,광주 광산구 건재로 761,광산구,쌍용S-oil주유소,,gwangju
해피주유소,광주 광산구 건재로 761,광산구,주유소,,gwangju
태양소금,광주 광산구 계안길 25-9,광산구,기타음료식품,,gwangju
엘리트창호,광주 광산구 계안길 27-6,광산구,기타용역서비스,,gwangju
동화석유,광주 광산구 고내상길 3,광산구,유류판매,,gwangju
동화석유,광주 광산구 고내상길 3,광산구,유류판매,,gwangju
송산승마장,광주 광산구 가삼안길 68-100,광산구,기타레져업,,gwangju
양이랑 말이랑,광주 광산구 가삼안길 68-89,광산구,서양음식,,gwangju
카페양말,광주 광산구 가삼안길 68-89,광산구,서양음식,,gwangju
상쾌한 아침,광주 광산구 가삼안길 69,광산구,일반가구,,gwangju
해피주유소,광주 광산구 건재로 761,광산구,쌍용S-oil주유소,,gwangju
해피주유소,광주 광산구 건재로 761,광산구,주유소,,gwangju
태양소금,광주 광산구 계안길 25-9,광산구,기타음료식품,,gwangju
엘리트창호,광주 광산구 계안길 27-6,광산구,기타용역서비스,,gwangju
동화석유,광주 광산구 고내상길 3,광산구,유류판매,,gwangju
동화석유,광주 광산구 고내상길 3,광산구,유류판매,,gwangju
송산승마장,광주 광산구 가삼안길 68-100,광산구,기타레져업,,gwangju
양이랑 말이랑,광주 광산구 가삼안길 68-89,광산구,서양음식,,gwangju
카페양말,광주 광산구 가삼안길 68-89,광산구,서양음식,,gwangju
상쾌한 아침,광주 광산구 가삼안길 69,광산구,일반가구,,gwangju
해피주유소,광주 광산구 건재로 761,광산구,쌍용S-oil주유소,,gwangju
해피주유소,광주 광산구 건재로 761,광산구,주유소,,gwangju
태양소금,광주 광산구 계안길 25-9,광산구,기타음료식품,,gwangju
엘리트창호,광주 광산구 계안길 27-6,광산구,기타용역서비스,,gwangju
동화석유,광주 광산구 고내상길 3,광산구,유류판매,,gwangju
동화석유,광주 광산구 고내상길 3,광산구,유류판매,,gwangju
송산승마장,광주 광산구 가삼안길 68-100,광산구,기타레져업,,gwangju
양이랑 말이랑,광주 광산구 가삼안길 68-89,광산구,서양음식,,gwangju
카페양말,광주 광산구 가삼안길 68-89,광산구,서양음식,,gwangju
상쾌한 아침,광주 광산구 가삼안길 69,광산구,일반가구,,gwangju
해피주유소,광주 광산구 건재로 761,광산구,쌍용S-oil주유소,,gwangju
해피주유소,광주 광산구 건재로 761,광산구,주유소,,gwangju
태양소금,광주 광산구 계안길 25-9,광산구,기타음료식품,,gwangju
엘리트창호,광주 광산구 계안길 27-6,광산구,기타용역서비스,,gwangju
동화석유,광주 광산구 고내상길 3,광산구,유류판매,,gwangju
동화석유,광주 광산구 고내상길 3,광산구,유류판매,,gwangju
송산승마장,광주 광산구 가삼안길 68-100,광산구,기타레져업,,gwangju
양이랑 말이랑,광주 광산구 가삼안길 68-89,광산구,서양음식,,gwangju
카페양말,광주 광산구 가삼안길 68-89,광산구,서양음식,,gwangju
상쾌한 아침,광주 광산구 가삼안길 69,광산구,일반가구,,gwangju
해피주유소,광주 광산구 건재로 761,광산구,쌍용S-oil주유소,,gwangju
해피주유소,광주 광산구 건재로 761,광산구,주유소,,gwangju
태양소금,광주 광산구 계안길 25-9,광산구,기타음료식품,,gwangju
엘리트창호,광주 광산구 계안길 27-6,광산구,기타용역서비스,,gwangju
동화석유,광주 광산구 고내상길 3,광산구,유류판매,,gwangju
동화석유,광주 광산구 고내상길 3,광산구,유류판매,,gwangju
송산승마장,광주 광산구 가삼안길 68-100,광산구,기타레져업,,gwangju
양이랑 말이랑,광주 광산구 가삼안길 68-89,광산구,서양음식,,gwangju
카페양말,광주 광산구 가삼안길 68-89,광산구,서양음식,,gwangju
상쾌한 아침,광주 광산구 가삼안길 69,광산구,일반가구,,gwangju
해피주유소,광주 광산구 건재로 761,광산구,쌍용S-oil주유소,,gwangju
해피주유소,광주 광산구 건재로 761,광산구,주유소,,gwangju
태양소금,광주 광산구 계안길 25-9,광산구,기타음료식품,,gwangju
엘리트창호,광주 광산구 계안길 27-6,광산구,기타용역서비스,,gwangju
동화석유,광주 광산구 고내상길 3,광산구,유류판매,,gwangju
동화석유,광주 광산구 고내상길 3,광산구,유류판매,,gwangju
송산승마장,광주 광산구 가삼안길 68-100,광산구,기타레져업,,gwangju
양이랑 말이랑,광주 광산구 가삼안길 68-89,광산구,서양음식,,gwangju
카페양말,광주 광산구 가삼안길 68-89,광산구,서양음식,,gwangju
상쾌한 아침,광주 광산구 가삼안길 69,광산구,일반가구,,gwangju
해피주유소,광주 광산구 건재로 761,광산구,쌍용S-oil주유소,,gwangju
해피주유소,광주 광산구 건재로 761,광산구,주유소,,gwangju
태양소금,광주 광산구 계안길 25-9,광산구,기타음료식품,,gwangju
엘리트창호,광주 광산구 계안길 27-6,광산구,기타용역서비스,,gwangju
동화석유,광주 광산구 고내상길 3,광산구,유류판매,,gwangju
동화석유,광주 광산구 고내상길 3,광산구,유류판매,,gwangju
송산승마장,광주 광산구 가삼안길 68-100,광산구,기타레져업,,gwangju
양이랑 말이랑,광주 광산구 가삼안길 68-89,광산구,서양음식,,gwangju
카페양말,광주 광산구 가삼안길 68-89,광산구,서양음식,,gwangju
상쾌한 아침,광주 광산구 가삼안길 69,광산구,일반가구,,gwangju
해피주유소,광주 광산구 건재로 761,광산구,쌍용S-oil주유소,,gwangju
해피주유소,광주 광산구 건재로 761,광산구,주유소,,gwangju
태양소금,광주 광산구 계안길 25-9,광산구,기타음료식품,,gwangju
엘리트창호,광주 광산구 계안길 27-6,광산구,기타용역서비스,,gwangju
동화석유,광주 광산구 고내상길 3,광산구,유류판매,,gwangju
동화석유,광주 광산구 고내상길 3,광산구,유류판매,,gwangju
송산승마장,광주 광산구 가삼안길 68-100,광산구,기타레져업,,gwangju
양이랑 말이랑,광주 광산구 가삼안길 68-89,광산구,서양음식,,gwangju
카페양말,광주 광산구 가삼안길 68-89,광산구,서양음식,,gwangju
상쾌한 아침,광주 광산구 가삼안길 69,광산구,일반가구,,gwangju
해피주유소,광주 광산구 건재로 761,광산구,쌍용S-oil주유소,,gwangju
해피주유소,광주 광산구 건재로 761,광산구,주유소,,gwangju
태양소금,광주 광산구 계안길 25-9,광산구,기타음료식품,,gwangju
엘리트창호,광주 광산구 계안길 27-6,광산구,기타용역서비스,,gwangju
동화석유,광주 광산구 고내상길 3,광산구,유류판매,,gwangju
동화석유,광주 광산구 고내상길 3,광산구,유류판매,,gwangju
송산승마장,광주 광산구 가삼안길 68-100,광산구,기타레져업,,gwangju
양이랑 말이랑,광주 광산구 가삼안길 68-89,광산구,서양음식,,gwangju
카페양말,광주 광산구 가삼안길 68-89,광산구,서양음식,,gwangju
상쾌한 아침,광주 광산구 가삼안길 69,광산구,일반가구,,gwangju
해피주유소,광주 광산구 건재로 761,광산구,쌍용S-oil주유소,,gwangju
해피주유소,광주 광산구 건재로 761,광산구,주유소,,gwangju
태양소금,광주 광산구 계안길 25-9,광산구,기타음료식품,,gwangju
엘리트창호,광주 광산구 계안길 27-6,광산구,기타용역서비스,,gwangju
동화석유,광주 광산구 고내상길 3,광산구,유류판매,,gwangju
동화석유,광주 광산구 고내상길 3,광산구,유류판매,,gwangju
송산승마장,광주 광산구 가삼안길 68-100,광산구,기타레져업,,gwangju
양이랑 말이랑,광주 광산구 가삼안길 68-89,광산구,서양음식,,gwangju
카페양말,광주 광산구 가삼안길 68-89,광산구,서양음식,,gwangju
상쾌한 아침,광주 광산구 가삼안길 69,광산구,일반가구,,gwangju
해피주유소,광주 광산구 건재로 761,광산구,쌍용S-oil주유소,,gwangju
해피주유소,광주 광산구 건재로 761,광산구,주유소,,gwangju
태양소금,광주 광산구 계안길 25-9,광산구,기타음료식품,,gwangju
엘리트창호,광주 광산구 계안길 27-6,광산구,기타용역서비스,,gwangju
동화석유,광주 광산구 고내상길 3,광산구,유류판매,,gwangju
동화석유,광주 광산구 고내상길 3,광산구,유류판매,,gwangju
송산승마장,광주 광산구 가삼안길 68-100,광산구,기타레져업,,gwangju
양이랑 말이랑,광주 광산구 가삼안길 68-89,광산구,서양음식,,gwangju
카페양말,광주 광산구 가삼안길 68-89,광산구,서양음식,,gwangju
상쾌한 아침,광주 광산구 가삼안길 69,광산구,일반가구,,gwangju
해피주유소,광주 광산구 건재로 761,광산구,쌍용S-oil주유소,,gwangju
해피주유소,광주 광산구 건재로 761,광산구,주유소,,gwangju
태양소금,광주 광산구 계안길 25-9,광산구,기타음료식품,,gwangju
엘리트창호,광주 광산구 계안길 27-6,광산구,기타용역서비스,,gwangju
동화석유,광주 광산구 고내상길 3,광산구,유류판매,,gwangju
동화석유,광주 광산구 고내상길 3,광산구,유류판매,,gwangju
송산승마장,광주 광산구 가삼안길 68-100,광산구,기타레져업,,gwangju
양이랑 말이랑,광주 광산구 가삼안길 68-89,광산구,서양음식,,gwangju
카페양말,광주 광산구 가삼안길 68-89,광산구,서양음식,,gwangju
상쾌한 아침,광주 광산구 가삼안길 69,광산구,일반가구,,gwangju
해피주유소,광주 광산구 건재로 761,광산구,쌍용S-oil주유소,,gwangju
해피주유소,광주 광산구 건재로 761,광산구,주유소,,gwangju
태양소금,광주 광산구 계안길 25-9,광산구,기타음료식품,,gwangju
엘리트창호,광주 광산구 계안길 27-6,광산구,기타용역서비스,,gwangju
동화석유,광주 광산구 고내상길 3,광산구,유류판매,,gwangju
동화석유,광주 광산구 고내상길 3,광산구,유류판매,,gwangju
송산승마장,광주 광산구 가삼안길 68-100,광산구,기타레져업,,gwangju
양이랑 말이랑,광주 광산구 가삼안길 68-89,광산구,서양음식,,gwangju
카페양말,광주 광산구 가삼안길 68-89,광산구,서양음식,,gwangju
상쾌한 아침,광주 광산구 가삼안길 69,광산구,일반가구,,gwangju
해피주유소,광주 광산구 건재로 761,광산구,쌍용S-oil주유소,,gwangju
해피주유소,광주 광산구 건재로 761,광산구,주유소,,gwangju
태양소금,광주 광산구 계안길 25-9,광산구,기타음료식품,,gwangju
엘리트창호,광주 광산구 계안길 27-6,광산구,기타용역서비스,,gwangju
동화석유,광주 광산구 고내상길 3,광산구,유류판매,,gwangju
동화석유,광주 광산구 고내상길 3,광산구,유류판매,,gwangju
송산승마장,광주 광산구 가삼안길 68-100,광산구,기타레져업,,gwangju
양이랑 말이랑,광주 광산구 가삼안길 68-89,광산구,서양음식,,gwangju
카페양말,광주 광산구 가삼안길 68-89,광산구,서양음식,,gwangju
상쾌한 아침,광주 광산구 가삼안길 69,광산구,일반가구,,gwangju
해피주유소,광주 광산구 건재로 761,광산구,쌍용S-oil주유소,,gwangju
해피주유소,광주 광산구 건재로 761,광산구,주유소,,gwangju
태양소금,광주 광산구 계안길 25-9,광산구,기타음료식품,,gwangju
엘리트창호,광주 광산구 계안길 27-6,광산구,기타용역서비스,,gwangju
동화석유,광주 광산구 고내상길 3,광산구,유류판매,,gwangju
동화석유,광주 광산구 고내상길 3,광산구,유류판매,,gwangju
송산승마장,광주 광산구 가삼안길 68-100,광산구,기타레져업,,gwangju
양이랑 말이랑,광주 광산구 가삼안길 68-89,광산구,서양음식,,gwangju
카페양말,광주 광산구 가삼안길 68-89,광산구,서양음식,,gwangju
상쾌한 아침,광주 광산구 가삼안길 69,광산구,일반가구,,gwangju
해피주유소,광주 광산구 건재로 761,광산구,쌍용S-oil주유소,,gwangju
해피주유소,광주 광산구 건재로 761,광산구,주유소,,gwangju
태양소금,광주 광산구 계안길 25-9,광산구,기타음료식품,,gwangju
엘리트창호,광주 광산구 계안길 27-6,광산구,기타용역서비스,,gwangju
동화석유,광주 광산구 고내상길 3,광산구,유류판매,,gwangju
동화석유,광주 광산구 고내상길 3,광산구,유류판매,,gwangju
송산승마장,광주 광산구 가삼안길 68-100,광산구,기타레져업,,gwangju
양이랑 말이랑,광주 광산구 가삼안길 68-89,광산구,서양음식,,gwangju
카페양말,광주 광산구 가삼안길 68-89,광산구,서양음식,,gwangju
상쾌한 아침,광주 광산구 가삼안길 69,광산구,일반가구,,gwangju
해피주유소,광주 광산구 건재로 761,광산구,쌍용S-oil주유소,,gwangju
해피주유소,광주 광산구 건재로 761,광산구,주유소,,gwangju
태양소금,광주 광산구 계안길 25-9,광산구,기타음료식품,,gwangju
엘리트창호,광주 광산구 계안길 27-6,광산구,기타용역서비스,,gwangju
동화석유,광주 광산구 고내상길 3,광산구,유류판매,,gwangju
동화석유,광주 광산구 고내상길 3,광산구,유류판매,,gwangju
송산승마장,광주 광산구 가삼안길 68-100,광산구,기타레져업,,gwangju
양이랑 말이랑,광주 광산구 가삼안길 68-89,광산구,서양음식,,gwangju
카페양말,광주 광산구 가삼안길 68-89,광산구,서양음식,,gwangju
상쾌한 아침,광주 광산구 가삼안길 69,광산구,일반가구,,gwangju
해피주유소,광주 광산구 건재로 761,광산구,쌍용S-oil주유소,,gwangju
해피주유소,광주 광산구 건재로 761,광산구,주유소,,gwangju
태양소금,광주 광산구 계안길 25-9,광산구,기타음료식품,,gwangju
엘리트창호,광주 광산구 계안길 27-6,광산구,기타용역서비스,,gwangju
동화석유,광주 광산구 고내상길 3,광산구,유류판매,,gwangju
동화석유,광주 광산구 고내상길 3,광산구,유류판매,,gwangju
송산승마장,광주 광산구 가삼안길 68-100,광산구,기타레져업,,gwangju
양이랑 말이랑,광주 광산구 가삼안길 68-89,광산구,서양음식,,gwangju
카페양말,광주 광산구 가삼안길 68-89,광산구,서양음식,,gwangju
상쾌한 아침,광주 광산구 가삼안길 69,광산구,일반가구,,gwangju
해피주유소,광주 광산구 건재로 761,광산구,쌍용S-oil주유소,,gwangju
해피주유소,광주 광산구 건재로 761,광산구,주유소,,gwangju
태양소금,광주 광산구 계안길 25-9,광산구,기타음료식품,,gwangju
엘리트창호,광주 광산구 계안길 27-6,광산구,기타용역서비스,,gwangju
동화석유,광주 광산구 고내상길 3,광산구,유류판매,,gwangju
동화석유,광주 광산구 고내상길 3,광산구,유류판매,,gwangju
송산승마장,광주 광산구 가삼안길 68-100,광산구,기타레져업,,gwangju
양이랑 말이랑,광주 광산구 가삼안길 68-89,광산구,서양음식,,gwangju
카페양말,광주 광산구 가삼안길 68-89,광산구,서양음식,,gwangju
상쾌한 아침,광주 광산구 가삼안길 69,광산구,일반가구,,gwangju
해피주유소,광주 광산구 건재로 761,광산구,쌍용S-oil주유소,,gwangju
해피주유소,광주 광산구 건재로 761,광산구,주유소,,gwangju
태양소금,광주 광산구 계안길 25-9,광산구,기타음료식품,,gwangju
엘리트창호,광주 광산구 계안길 27-6,광산구,기타용역서비스,,gwangju
동화석유,광주 광산구 고내상길 3,광산구,유류판매,,gwangju
동화석유,광주 광산구 고내상길 3,광산구,유류판매,,gwangju
송산승마장,광주 광산구 가삼안길 68-100,광산구,기타레져업,,gwangju
양이랑 말이랑,광주 광산구 가삼안길 68-89,광산구,서양음식,,gwangju
카페양말,광주 광산구 가삼안길 68-89,광산구,서양음식,,gwangju
상쾌한 아침,광주 광산구 가삼안길 69,광산구,일반가구,,gwangju
해피주유소,광주 광산구 건재로 761,광산구,쌍용S-oil주유소,,gwangju
해피주유소,광주 광산구 건재로 761,광산구,주유소,,gwangju
태양소금,광주 광산구 계안길 25-9,광산구,기타음료식품,,gwangju
엘리트창호,광주 광산구 계안길 27-6,광산구,기타용역서비스,,gwangju
동화석유,광주 광산구 고내상길 3,광산구,유류판매,,gwangju
동화석유,광주 광산구 고내상길 3,광산구,유류판매,,gwangju
송산승마장,광주 광산구 가삼안길 68-100,광산구,기타레져업,,gwangju
양이랑 말이랑,광주 광산구 가삼안길 68-89,광산구,서양음식,,gwangju
카페양말,광주 광산구 가삼안길 68-89,광산구,서양음식,,gwangju
상쾌한 아침,광주 광산구 가삼안길 69,광산구,일반가구,,gwangju
해피주유소,광주 광산구 건재로 761,광산구,쌍용S-oil주유소,,gwangju
해피주유소,광주 광산구 건재로 761,광산구,주유소,,gwangju
태양소금,광주 광산구 계안길 25-9,광산구,기타음료식품,,gwangju
엘리트창호,광주 광산구 계안길 27-6,광산구,기타용역서비스,,gwangju
동화석유,광주 광산구 고내상길 3,광산구,유류판매,,gwangju
동화석유,광주 광산구 고내상길 3,광산구,유류판매,,gwangju
송산승마장,광주 광산구 가삼안길 68-100,광산구,기타레져업,,gwangju
양이랑 말이랑,광주 광산구 가삼안길 68-89,광산구,서양음식,,gwangju
카페양말,광주 광산구 가삼안길 68-89,광산구,서양음식,,gwangju
상쾌한 아침,광주 광산구 가삼안길 69,광산구,일반가구,,gwangju
해피주유소,광주 광산구 건재로 761,광산구,쌍용S-oil주유소,,gwangju
해피주유소,광주 광산구 건재로 761,광산구,주유소,,gwangju
태양소금,광주 광산구 계안길 25-9,광산구,기타음료식품,,gwangju
엘리트창호,광주 광산구 계안길 27-6,광산구,기타용역서비스,,gwangju
동화석유,광주 광산구 고내상길 3,광산구,유류판매,,gwangju
동화석유,광주 광산구 고내상길 3,광산구,유류판매,,gwangju
송산승마장,광주 광산구 가삼안길 68-100,광산구,기타레져업,,gwangju
양이랑 말이랑,광주 광산구 가삼안길 68-89,광산구,서양음식,,gwangju
카페양말,광주 광산구 가삼안길 68-89,광산구,서양음식,,gwangju
상쾌한 아침,광주 광산구 가삼안길 69,광산구,일반가구,,gwangju
해피주유소,광주 광산구 건재로 761,광산구,쌍용S-oil주유소,,gwangju
해피주유소,광주 광산구 건재로 761,광산구,주유소,,gwangju
태양소금,광주 광산구 계안길 25-9,광산구,기타음료식품,,gwangju
엘리트창호,광주 광산구 계안길 27-6,광산구,기타용역서비스,,gwangju
동화석유,광주 광산구 고내상길 3,광산구,유류판매,,gwangju
동화석유,광주 광산구 고내상길 3,광산구,유류판매,,gwangju
송산승마장,광주 광산구 가삼안길 68-100,광산구,기타레져업,,gwangju
양이랑 말이랑,광주 광산구 가삼안길 68-89,광산구,서양음식,,gwangju
카페양말,광주 광산구 가삼안길 68-89,광산구,서양음식,,gwangju
상쾌한 아침,광주 광산구 가삼안길 69,광산구,일반가구,,gwangju
해피주유소,광주 광산구 건재로 761,광산구,쌍용S-oil주유소,,gwangju
해피주유소,광주 광산구 건재로 761,광산구,주유소,,gwangju
태양소금,광주 광산구 계안길 25-9,광산구,기타음료식품,,gwangju
엘리트창호,광주 광산구 계안길 27-6,광산구,기타용역서비스,,gwangju
동화석유,광주 광산구 고내상길 3,광산구,유류판매,,gwangju
동화석유,광주 광산구 고내상길 3,광산구,유류판매,,gwangju
송산승마장,광주 광산구 가삼안길 68-100,광산구,기타레져업,,gwangju
양이랑 말이랑,광주 광산구 가삼안길 68-89,광산구,서양음식,,gwangju
카페양말,광주 광산구 가삼안길 68-89,광산구,서양음식,,gwangju
상쾌한 아침,광주 광산구 가삼안길 69,광산구,일반가구,,gwangju
해피주유소,광주 광산구 건재로 761,광산구,쌍용S-oil주유소,,gwangju
해피주유소,광주 광산구 건재로 761,광산구,주유소,,gwangju
태양소금,광주 광산구 계안길 25-9,광산구,기타음료식품,,gwangju
엘리트창호,광주 광산구 계안길 27-6,광산구,기타용역서비스,,gwangju
동화석유,광주 광산구 고내상길 3,광산구,유류판매,,gwangju
동화석유,광주 광산구 고내상길 3,광산구,유류판매,,gwangju
송산승마장,광주 광산구 가삼안길 68-100,광산구,기타레져업,,gwangju
양이랑 말이랑,광주 광산구 가삼안길 68-89,광산구,서양음식,,gwangju
카페양말,광주 광산구 가삼안길 68-89,광산구,서양음식,,gwangju
상쾌한 아침,광주 광산구 가삼안길 69,광산구,일반가구,,gwangju
해피주유소,광주 광산구 건재로 761,광산구,쌍용S-oil주유소,,gwangju
해피주유소,광주 광산구 건재로 761,광산구,주유소,,gwangju
태양소금,광주 광산구 계안길 25-9,광산구,기타음료식품,,gwangju
엘리트창호,광주 광산구 계안길 27-6,광산구,기타용역서비스,,gwangju
동화석유,광주 광산구 고내상길 3,광산구,유류판매,,gwangju
동화석유,광주 광산구 고내상길 3,광산구,유류판매,,gwangju
송산승마장,광주 광산구 가삼안길 68-100,광산구,기타레져업,,gwangju
양이랑 말이랑,광주 광산구 가삼안길 68-89,광산구,서양음식,,gwangju
카페양말,광주 광산구 가삼안길 68-89,광산구,서양음식,,gwangju
상쾌한 아침,광주 광산구 가삼안길 69,광산구,일반가구,,gwangju
해피주유소,광주 광산구 건재로 761,광산구,쌍용S-oil주유소,,gwangju
해피주유소,광주 광산구 건재로 761,광산구,주유소,,gwangju
태양소금,광주 광산구 계안길 25-9,광산구,기타음료식품,,gwangju
엘리트창호,광주 광산구 계안길 27-6,광산구,기타용역서비스,,gwangju
동화석유,광주 광산구 고내상길 3,광산구,유류판매,,gwangju
동화석유,광주 광산구 고내상길 3,광산구,유류판매,,gwangju
송산승마장,광주 광산구 가삼안길 68-100,광산구,기타레져업,,gwangju
양이랑 말이랑,광주 광산구 가삼안길 68-89,광산구,서양음식,,gwangju
카페양말,광주 광산구 가삼안길 68-89,광산구,서양음식,,gwangju
상쾌한 아침,광주 광산구 가삼안길 69,광산구,일반가구,,gwangju
해피주유소,광주 광산구 건재로 761,광산구,쌍용S-oil주유소,,gwangju
해피주유소,광주 광산구 건재로 761,광산구,주유소,,gwangju
태양소금,광주 광산구 계안길 25-9,광산구,기타음료식품,,gwangju
엘리트창호,광주 광산구 계안길 27-6,광산구,기타용역서비스,,gwangju
동화석유,광주 광산구 고내상길 3,광산구,유류판매,,gwangju
동화석유,광주 광산구 고내상길 3,광산구,유류판매,,gwangju
송산승마장,광주 광산구 가삼안길 68-100,광산구,기타레져업,,gwangju
양이랑 말이랑,광주 광산구 가삼안길 68-89,광산구,서양음식,,gwangju
카페양말,광주 광산구 가삼안길 68-89,광산구,서양음식,,gwangju
상쾌한 아침,광주 광산구 가삼안길 69,광산구,일반가구,,gwangju
해피주유소,광주 광산구 건재로 761,광산구,쌍용S-oil주유소,,gwangju
해피주유소,광주 광산구 건재로 761,광산구,주유소,,gwangju
태양소금,광주 광산구 계안길 25-9,광산구,기타음료식품,,gwangju
엘리트창호,광주 광산구 계안길 27-6,광산구,기타용역서비스,,gwangju
동화석유,광주 광산구 고내상길 3,광산구,유류판매,,gwangju
동화석유,광주 광산구 고내상길 3,광산구,유류판매,,gwangju
송산승마장,광주 광산구 가삼안길 68-100,광산구,기타레져업,,gwangju
양이랑 말이랑,광주 광산구 가삼안길 68-89,광산구,서양음식,,gwangju
카페양말,광주 광산구 가삼안길 68-89,광산구,서양음식,,gwangju
상쾌한 아침,광주 광산구 가삼안길 69,광산구,일반가구,,gwangju
해피주유소,광주 광산구 건재로 761,광산구,쌍용S-oil주유소,,gwangju
해피주유소,광주 광산구 건재로 761,광산구,주유소,,gwangju
태양소금,광주 광산구 계안길 25-9,광산구,기타음료식품,,gwangju
엘리트창호,광주 광산구 계안길 27-6,광산구,기타용역서비스,,gwangju
동화석유,광주 광산구 고내상길 3,광산구,유류판매,,gwangju
동화석유,광주 광산구 고내상길 3,광산구,유류판매,,gwangju
송산승마장,광주 광산구 가삼안길 68-100,광산구,기타레져업,,gwangju
양이랑 말이랑,광주 광산구 가삼안길 68-89,광산구,서양음식,,gwangju
카페양말,광주 광산구 가삼안길 68-89,광산구,서양음식,,gwangju
상쾌한 아침,광주 광산구 가삼안길 69,광산구,일반가구,,gwangju
해피주유소,광주 광산구 건재로 761,광산구,쌍용S-oil주유소,,gwangju
해피주유소,광주 광산구 건재로 761,광산구,주유소,,gwangju
태양소금,광주 광산구 계안길 25-9,광산구,기타음료식품,,gwangju
엘리트창호,광주 광산구 계안길 27-6,광산구,기타용역서비스,,gwangju
동화석유,광주 광산구 고내상길 3,광산구,유류판매,,gwangju
동화석유,광주 광산구 고내상길 3,광산구,유류판매,,gwangju
송산승마장,광주 광산구 가삼안길 68-100,광산구,기타레져업,,gwangju
양이랑 말이랑,광주 광산구 가삼안길 68-89,광산구,서양음식,,gwangju
카페양말,광주 광산구 가삼안길 68-89,광산구,서양음식,,gwangju
상쾌한 아침,광주 광산구 가삼안길 69,광산구,일반가구,,gwangju
해피주유소,광주 광산구 건재로 761,광산구,쌍용S-oil주유소,,gwangju
해피주유소,광주 광산구 건재로 761,광산구,주유소,,gwangju
태양소금,광주 광산구 계안길 25-9,광산구,기타음료식품,,gwangju
엘리트창호,광주 광산구 계안길 27-6,광산구,기타용역서비스,,gwangju
동화석유,광주 광산구 고내상길 3,광산구,유류판매,,gwangju
동화석유,광주 광산구 고내상길 3,광산구,유류판매,,gwangju
송산승마장,광주 광산구 가삼안길 68-100,광산구,기타레져업,,gwangju
양이랑 말이랑,광주 광산구 가삼안길 68-89,광산구,서양음식,,gwangju
카페양말,광주 광산구 가삼안길 68-89,광산구,서양음식,,gwangju
상쾌한 아침,광주 광산구 가삼안길 69,광산구,일반가구,,gwangju
해피주유소,광주 광산구 건재로 761,광산구,쌍용S-oil주유소,,gwangju
해피주유소,광주 광산구 건재로 761,광산구,주유소,,gwangju
태양소금,광주 광산구 계안길 25-9,광산구,기타음료식품,,gwangju
엘리트창호,광주 광산구 계안길 27-6,광산구,기타용역서비스,,gwangju
동화석유,광주 광산구 고내상길 3,광산구,유류판매,,gwangju
동화석유,광주 광산구 고내상길 3,광산구,유류판매,,gwangju
송산승마장,광주 광산구 가삼안길 68-100,광산구,기타레져업,,gwangju
양이랑 말이랑,광주 광산구 가삼안길 68-89,광산구,서양음식,,gwangju
카페양말,광주 광산구 가삼안길 68-89,광산구,서양음식,,gwangju
상쾌한 아침,광주 광산구 가삼안길 69,광산구,일반가구,,gwangju
해피주유소,광주 광산구 건재로 761,광산구,쌍용S-oil주유소,,gwangju
해피주유소,광주 광산구 건재로 761,광산구,주유소,,gwangju
태양소금,광주 광산구 계안길 25-9,광산구,기타음료식품,,gwangju
엘리트창호,광주 광산구 계안길 27-6,광산구,기타용역서비스,,gwangju
동화석유,광주 광산구 고내상길 3,광산구,유류판매,,gwangju
동화석유,광주 광산구 고내상길 3,광산구,유류판매,,gwangju
송산승마장,광주 광산구 가삼안길 68-100,광산구,기타레져업,,gwangju
양이랑 말이랑,광주 광산구 가삼안길 68-89,광산구,서양음식,,gwangju
카페양말,광주 광산구 가삼안길 68-89,광산구,서양음식,,gwangju
상쾌한 아침,광주 광산구 가삼안길 69,광산구,일반가구,,gwangju
해피주유소,광주 광산구 건재로 761,광산구,쌍용S-oil주유소,,gwangju
해피주유소,광주 광산구 건재로 761,광산구,주유소,,gwangju
태양소금,광주 광산구 계안길 25-9,광산구,기타음료식품,,gwangju
엘리트창호,광주 광산구 계안길 27-6,광산구,기타용역서비스,,gwangju
동화석유,광주 광산구 고내상길 3,광산구,유류판매,,gwangju
동화석유,광주 광산구 고내상길 3,광산구,유류판매,,gwangju
송산승마장,광주 광산구 가삼안길 68-100,광산구,기타레져업,,gwangju
양이랑 말이랑,광주 광산구 가삼안길 68-89,광산구,서양음식,,gwangju
카페양말,광주 광산구 가삼안길 68-89,광산구,서양음식,,gwangju
상쾌한 아침,광주 광산구 가삼안길 69,광산구,일반가구,,gwangju
해피주유소,광주 광산구 건재로 761,광산구,쌍용S-oil주유소,,gwangju
해피주유소,광주 광산구 건재로 761,광산구,주유소,,gwangju
태양소금,광주 광산구 계안길 25-9,광산구,기타음료식품,,gwangju
엘리트창호,광주 광산구 계안길 27-6,광산구,기타용역서비스,,gwangju
동화석유,광주 광산구 고내상길 3,광산구,유류판매,,gwangju
동화석유,광주 광산구 고내상길 3,광산구,유류판매,,gwangju
송산승마장,광주 광산구 가삼안길 68-100,광산구,기타레져업,,gwangju
양이랑 말이랑,광주 광산구 가삼안길 68-89,광산구,서양음식,,gwangju
카페양말,광주 광산구 가삼안길 68-89,광산구,서양음식,,gwangju
상쾌한 아침,광주 광산구 가삼안길 69,광산구,일반가구,,gwangju
해피주유소,광주 광산구 건재로 761,광산구,쌍용S-oil주유소,,gwangju
해피주유소,광주 광산구 건재로 761,광산구,주유소,,gwangju
태양소금,광주 광산구 계안길 25-9,광산구,기타음료식품,,gwangju
엘리트창호,광주 광산구 계안길 27-6,광산구,기타용역서비스,,gwangju
동화석유,광주 광산구 고내상길 3,광산구,유류판매,,gwangju
동화석유,광주 광산구 고내상길 3,광산구,유류판매,,gwangju
송산승마장,광주 광산구 가삼안길 68-100,광산구,기타레져업,,gwangju
양이랑 말이랑,광주 광산구 가삼안길 68-89,광산구,서양음식,,gwangju
카페양말,광주 광산구 가삼안길 68-89,광산구,서양음식,,gwangju
상쾌한 아침,광주 광산구 가삼안길 69,광산구,일반가구,,gwangju
해피주유소,광주 광산구 건재로 761,광산구,쌍용S-oil주유소,,gwangju
해피주유소,광주 광산구 건재로 761,광산구,주유소,,gwangju
태양소금,광주 광산구 계안길 25-9,광산구,기타음료식품,,gwangju
엘리트창호,광주 광산구 계안길 27-6,광산구,기타용역서비스,,gwangju
동화석유,광주 광산구 고내상길 3,광산구,유류판매,,gwangju
동화석유,광주 광산구 고내상길 3,광산구,유류판매,,gwangju
송산승마장,광주 광산구 가삼안길 68-100,광산구,기타레져업,,gwangju
양이랑 말이랑,광주 광산구 가삼안길 68-89,광산구,서양음식,,gwangju
카페양말,광주 광산구 가삼안길 68-89,광산구,서양음식,,gwangju
상쾌한 아침,광주 광산구 가삼안길 69,광산구,일반가구,,gwangju
해피주유소,광주 광산구 건재로 761,광산구,쌍용S-oil주유소,,gwangju
해피주유소,광주 광산구 건재로 761,광산구,주유소,,gwangju
태양소금,광주 광산구 계안길 25-9,광산구,기타음료식품,,gwangju
엘리트창호,광주 광산구 계안길 27-6,광산구,기타용역서비스,,gwangju
동화석유,광주 광산구 고내상길 3,광산구,유류판매,,gwangju
동화석유,광주 광산구 고내상길 3,광산구,유류판매,,gwangju
송산승마장,광주 광산구 가삼안길 68-100,광산구,기타레져업,,gwangju
양이랑 말이랑,광주 광산구 가삼안길 68-89,광산구,서양음식,,gwangju
카페양말,광주 광산구 가삼안길 68-89,광산구,서양음식,,gwangju
상쾌한 아침,광주 광산구 가삼안길 69,광산구,일반가구,,gwangju
해피주유소,광주 광산구 건재로 761,광산구,쌍용S-oil주유소,,gwangju
해피주유소,광주 광산구 건재로 761,광산구,주유소,,gwangju
태양소금,광주 광산구 계안길 25-9,광산구,기타음료식품,,gwangju
엘리트창호,광주 광산구 계안길 27-6,광산구,기타용역서비스,,gwangju
동화석유,광주 광산구 고내상길 3,광산구,유류판매,,gwangju
동화석유,광주 광산구 고내상길 3,광산구,유류판매,,gwangju
송산승마장,광주 광산구 가삼안길 68-100,광산구,기타레져업,,gwangju
양이랑 말이랑,광주 광산구 가삼안길 68-89,광산구,서양음식,,gwangju
카페양말,광주 광산구 가삼안길 68-89,광산구,서양음식,,gwangju
상쾌한 아침,광주 광산구 가삼안길 69,광산구,일반가구,,gwangju
해피주유소,광주 광산구 건재로 761,광산구,쌍용S-oil주유소,,gwangju
해피주유소,광주 광산구 건재로 761,광산구,주유소,,gwangju
태양소금,광주 광산구 계안길 25-9,광산구,기타음료식품,,gwangju
엘리트창호,광주 광산구 계안길 27-6,광산구,기타용역서비스,,gwangju
동화석유,광주 광산구 고내상길 3,광산구,유류판매,,gwangju
동화석유,광주 광산구 고내상길 3,광산구,유류판매,,gwangju
송산승마장,광주 광산구 가삼안길 68-100,광산구,기타레져업,,gwangju
양이랑 말이랑,광주 광산구 가삼안길 68-89,광산구,서양음식,,gwangju
카페양말,광주 광산구 가삼안길 68-89,광산구,서양음식,,gwangju
상쾌한 아침,광주 광산구 가삼안길 69,광산구,일반가구,,gwangju
해피주유소,광주 광산구 건재로 761,광산구,쌍용S-oil주유소,,gwangju
해피주유소,광주 광산구 건재로 761,광산구,주유소,,gwangju
태양소금,광주 광산구 계안길 25-9,광산구,기타음료식품,,gwangju
엘리트창호,광주 광산구 계안길 27-6,광산구,기타용역서비스,,gwangju
동화석유,광주 광산구 고내상길 3,광산구,유류판매,,gwangju
동화석유,광주 광산구 고내상길 3,광산구,유류판매,,gwangju
송산승마장,광주 광산구 가삼안길 68-100,광산구,기타레져업,,gwangju
양이랑 말이랑,광주 광산구 가삼안길 68-89,광산구,서양음식,,gwangju
카페양말,광주 광산구 가삼안길 68-89,광산구,서양음식,,gwangju
상쾌한 아침,광주 광산구 가삼안길 69,광산구,일반가구,,gwangju
해피주유소,광주 광산구 건재로 761,광산구,쌍용S-oil주유소,,gwangju
해피주유소,광주 광산구 건재로 761,광산구,주유소,,gwangju
태양소금,광주 광산구 계안길 25-9,광산구,기타음료식품,,gwangju
엘리트창호,광주 광산구 계안길 27-6,광산구,기타용역서비스,,gwangju
동화석유,광주 광산구 고내상길 3,광산구,유류판매,,gwangju
동화석유,광주 광산구 고내상길 3,광산구,유류판매,,gwangju
송산승마장,광주 광산구 가삼안길 68-100,광산구,기타레져업,,gwangju
양이랑 말이랑,광주 광산구 가삼안길 68-89,광산구,서양음식,,gwangju
카페양말,광주 광산구 가삼안길 68-89,광산구,서양음식,,gwangju
상쾌한 아침,광주 광산구 가삼안길 69,광산구,일반가구,,gwangju
해피주유소,광주 광산구 건재로 761,광산구,쌍용S-oil주유소,,gwangju
해피주유소,광주 광산구 건재로 761,광산구,주유소,,gwangju
태양소금,광주 광산구 계안길 25-9,광산구,기타음료식품,,gwangju
엘리트창호,광주 광산구 계안길 27-6,광산구,기타용역서비스,,gwangju
동화석유,광주 광산구 고내상길 3,광산구,유류판매,,gwangju
동화석유,광주 광산구 고내상길 3,광산구,유류판매,,gwangju
송산승마장,광주 광산구 가삼안길 68-100,광산구,기타레져업,,gwangju
양이랑 말이랑,광주 광산구 가삼안길 68-89,광산구,서양음식,,gwangju
카페양말,광주 광산구 가삼안길 68-89,광산구,서양음식,,gwangju
상쾌한 아침,광주 광산구 가삼안길 69,광산구,일반가구,,gwangju
해피주유소,광주 광산구 건재로 761,광산구,쌍용S-oil주유소,,gwangju
해피주유소,광주 광산구 건재로 761,광산구,주유소,,gwangju
태양소금,광주 광산구 계안길 25-9,광산구,기타음료식품,,gwangju
엘리트창호,광주 광산구 계안길 27-6,광산구,기타용역서비스,,gwangju
동화석유,광주 광산구 고내상길 3,광산구,유류판매,,gwangju
동화석유,광주 광산구 고내상길 3,광산구,유류판매,,gwangju
송산승마장,광주 광산구 가삼안길 68-100,광산구,기타레져업,,gwangju
양이랑 말이랑,광주 광산구 가삼안길 68-89,광산구,서양음식,,gwangju
카페양말,광주 광산구 가삼안길 68-89,광산구,서양음식,,gwangju
상쾌한 아침,광주 광산구 가삼안길 69,광산구,일반가구,,gwangju
해피주유소,광주 광산구 건재로 761,광산구,쌍용S-oil주유소,,gwangju
해피주유소,광주 광산구 건재로 761,광산구,주유소,,gwangju
태양소금,광주 광산구 계안길 25-9,광산구,기타음료식품,,gwangju
엘리트창호,광주 광산구 계안길 27-6,광산구,기타용역서비스,,gwangju
동화석유,광주 광산구 고내상길 3,광산구,유류판매,,gwangju
동화석유,광주 광산구 고내상길 3,광산구,유류판매,,gwangju
송산승마장,광주 광산구 가삼안길 68-100,광산구,기타레져업,,gwangju
양이랑 말이랑,광주 광산구 가삼안길 68-89,광산구,서양음식,,gwangju
카페양말,광주 광산구 가삼안길 68-89,광산구,서양음식,,gwangju
상쾌한 아침,광주 광산구 가삼안길 69,광산구,일반가구,,gwangju
해피주유소,광주 광산구 건재로 761,광산구,쌍용S-oil주유소,,gwangju
해피주유소,광주 광산구 건재로 761,광산구,주유소,,gwangju
태양소금,광주 광산구 계안길 25-9,광산구,기타음료식품,,gwangju
엘리트창호,광주 광산구 계안길 27-6,광산구,기타용역서비스,,gwangju
동화석유,광주 광산구 고내상길 3,광산구,유류판매,,gwangju
동화석유,광주 광산구 고내상길 3,광산구,유류판매,,gwangju
송산승마장,광주 광산구 가삼안길 68-100,광산구,기타레져업,,gwangju
양이랑 말이랑,광주 광산구 가삼안길 68-89,광산구,서양음식,,gwangju
카페양말,광주 광산구 가삼안길 68-89,광산구,서양음식,,gwangju
상쾌한 아침,광주 광산구 가삼안길 69,광산구,일반가구,,gwangju
해피주유소,광주 광산구 건재로 761,광산구,쌍용S-oil주유소,,gwangju
해피주유소,광주 광산구 건재로 761,광산구,주유소,,gwangju
태양소금,광주 광산구 계안길 25-9,광산구,기타음료식품,,gwangju
엘리트창호,광주 광산구 계안길 27-6,광산구,기타용역서비스,,gwangju
동화석유,광주 광산구 고내상길 3,광산구,유류판매,,gwangju
동화석유,광주 광산구 고내상길 3,광산구,유류판매,,gwangju
송산승마장,광주 광산구 가삼안길 68-100,광산구,기타레져업,,gwangju
양이랑 말이랑,광주 광산구 가삼안길 68-89,광산구,서양음식,,gwangju
카페양말,광주 광산구 가삼안길 68-89,광산구,서양음식,,gwangju
상쾌한 아침,광주 광산구 가삼안길 69,광산구,일반가구,,gwangju
해피주유소,광주 광산구 건재로 761,광산구,쌍용S-oil주유소,,gwangju
해피주유소,광주 광산구 건재로 761,광산구,주유소,,gwangju
태양소금,광주 광산구 계안길 25-9,광산구,기타음료식품,,gwangju
엘리트창호,광주 광산구 계안길 27-6,광산구,기타용역서비스,,gwangju
동화석유,광주 광산구 고내상길 3,광산구,유류판매,,gwangju
동화석유,광주 광산구 고내상길 3,광산구,유류판매,,gwangju
송산승마장,광주 광산구 가삼안길 68-100,광산구,기타레져업,,gwangju
양이랑 말이랑,광주 광산구 가삼안길 68-89,광산구,서양음식,,gwangju
카페양말,광주 광산구 가삼안길 68-89,광산구,서양음식,,gwangju
상쾌한 아침,광주 광산구 가삼안길 69,광산구,일반가구,,gwangju
해피주유소,광주 광산구 건재로 761,광산구,쌍용S-oil주유소,,gwangju
해피주유소,광주 광산구 건재로 761,광산구,주유소,,gwangju
태양소금,광주 광산구 계안길 25-9,광산구,기타음료식품,,gwangju
엘리트창호,광주 광산구 계안길 27-6,광산구,기타용역서비스,,gwangju
동화석유,광주 광산구 고내상길 3,광산구,유류판매,,gwangju
동화석유,광주 광산구 고내상길 3,광산구,유류판매,,gwangju
송산승마장,광주 광산구 가삼안길 68-100,광산구,기타레져업,,gwangju
양이랑 말이랑,광주 광산구 가삼안길 68-89,광산구,서양음식,,gwangju
카페양말,광주 광산구 가삼안길 68-89,광산구,서양음식,,gwangju
상쾌한 아침,광주 광산구 가삼안길 69,광산구,일반가구,,gwangju
해피주유소,광주 광산구 건재로 761,광산구,쌍용S-oil주유소,,gwangju
해피주유소,광주 광산구 건재로 761,광산구,주유소,,gwangju
태양소금,광주 광산구 계안길 25-9,광산구,기타음료식품,,gwangju
엘리트창호,광주 광산구 계안길 27-6,광산구,기타용역서비스,,gwangju
동화석유,광주 광산구 고내상길 3,광산구,유류판매,,gwangju
동화석유,광주 광산구 고내상길 3,광산구,유류판매,,gwangju
송산승마장,광주 광산구 가삼안길 68-100,광산구,기타레져업,,gwangju
양이랑 말이랑,광주 광산구 가삼안길 68-89,광산구,서양음식,,gwangju
카페양말,광주 광산구 가삼안길 68-89,광산구,서양음식,,gwangju
상쾌한 아침,광주 광산구 가삼안길 69,광산구,일반가구,,gwangju
해피주유소,광주 광산구 건재로 761,광산구,쌍용S-oil주유소,,gwangju
해피주유소,광주 광산구 건재로 761,광산구,주유소,,gwangju
태양소금,광주 광산구 계안길 25-9,광산구,기타음료식품,,gwangju
엘리트창호,광주 광산구 계안길 27-6,광산구,기타용역서비스,,gwangju
동화석유,광주 광산구 고내상길 3,광산구,유류판매,,gwangju
동화석유,광주 광산구 고내상길 3,광산구,유류판매,,gwangju
송산승마장,광주 광산구 가삼안길 68-100,광산구,기타레져업,,gwangju
양이랑 말이랑,광주 광산구 가삼안길 68-89,광산구,서양음식,,gwangju
카페양말,광주 광산구 가삼안길 68-89,광산구,서양음식,,gwangju
상쾌한 아침,광주 광산구 가삼안길 69,광산구,일반가구,,gwangju
해피주유소,광주 광산구 건재로 761,광산구,쌍용S-oil주유소,,gwangju
해피주유소,광주 광산구 건재로 761,광산구,주유소,,gwangju
태양소금,광주 광산구 계안길 25-9,광산구,기타음료식품,,gwangju
엘리트창호,광주 광산구 계안길 27-6,광산구,기타용역서비스,,gwangju
동화석유,광주 광산구 고내상길 3,광산구,유류판매,,gwangju
동화석유,광주 광산구 고내상길 3,광산구,유류판매,,gwangju
송산승마장,광주 광산구 가삼안길 68-100,광산구,기타레져업,,gwangju
양이랑 말이랑,광주 광산구 가삼안길 68-89,광산구,서양음식,,gwangju
카페양말,광주 광산구 가삼안길 68-89,광산구,서양음식,,gwangju
상쾌한 아침,광주 광산구 가삼안길 69,광산구,일반가구,,gwangju
해피주유소,광주 광산구 건재로 761,광산구,쌍용S-oil주유소,,gwangju
해피주유소,광주 광산구 건재로 761,광산구,주유소,,gwangju
태양소금,광주 광산구 계안길 25-9,광산구,기타음료식품,,gwangju
엘리트창호,광주 광산구 계안길 27-6,광산구,기타용역서비스,,gwangju
동화석유,광주 광산구 고내상길 3,광산구,유류판매,,gwangju
동화석유,광주 광산구 고내상길 3,광산구,유류판매,,gwangju
송산승마장,광주 광산구 가삼안길 68-100,광산구,기타레져업,,gwangju
양이랑 말이랑,광주 광산구 가삼안길 68-89,광산구,서양음식,,gwangju
카페양말,광주 광산구 가삼안길 68-89,광산구,서양음식,,gwangju
상쾌한 아침,광주 광산구 가삼안길 69,광산구,일반가구,,gwangju
해피주유소,광주 광산구 건재로 761,광산구,쌍용S-oil주유소,,gwangju
해피주유소,광주 광산구 건재로 761,광산구,주유소,,gwangju
태양소금,광주 광산구 계안길 25-9,광산구,기타음료식품,,gwangju
엘리트창호,광주 광산구 계안길 27-6,광산구,기타용역서비스,,gwangju
동화석유,광주 광산구 고내상길 3,광산구,유류판매,,gwangju
동화석유,광주 광산구 고내상길 3,광산구,유류판매,,gwangju
송산승마장,광주 광산구 가삼안길 68-100,광산구,기타레져업,,gwangju
양이랑 말이랑,광주 광산구 가삼안길 68-89,광산구,서양음식,,gwangju
카페양말,광주 광산구 가삼안길 68-89,광산구,서양음식,,gwangju
상쾌한 아침,광주 광산구 가삼안길 69,광산구,일반가구,,gwangju
해피주유소,광주 광산구 건재로 761,광산구,쌍용S-oil주유소,,gwangju
해피주유소,광주 광산구 건재로 761,광산구,주유소,,gwangju
태양소금,광주 광산구 계안길 25-9,광산구,기타음료식품,,gwangju
엘리트창호,광주 광산구 계안길 27-6,광산구,기타용역서비스,,gwangju
동화석유,광주 광산구 고내상길 3,광산구,유류판매,,gwangju
동화석유,광주 광산구 고내상길 3,광산구,유류판매,,gwangju
송산승마장,광주 광산구 가삼안길 68-100,광산구,기타레져업,,gwangju
양이랑 말이랑,광주 광산구 가삼안길 68-89,광산구,서양음식,,gwangju
카페양말,광주 광산구 가삼안길 68-89,광산구,서양음식,,gwangju
상쾌한 아침,광주 광산구 가삼안길 69,광산구,일반가구,,gwangju
해피주유소,광주 광산구 건재로 761,광산구,쌍용S-oil주유소,,gwangju
해피주유소,광주 광산구 건재로 761,광산구,주유소,,gwangju
태양소금,광주 광산구 계안길 25-9,광산구,기타음료식품,,gwangju
엘리트창호,광주 광산구 계안길 27-6,광산구,기타용역서비스,,gwangju
동화석유,광주 광산구 고내상길 3,광산구,유류판매,,gwangju
동화석유,광주 광산구 고내상길 3,광산구,유류판매,,gwangju
송산승마장,광주 광산구 가삼안길 68-100,광산구,기타레져업,,gwangju
양이랑 말이랑,광주 광산구 가삼안길 68-89,광산구,서양음식,,gwangju
카페양말,광주 광산구 가삼안길 68-89,광산구,서양음식,,gwangju
상쾌한 아침,광주 광산구 가삼안길 69,광산구,일반가구,,gwangju
해피주유소,광주 광산구 건재로 761,광산구,쌍용S-oil주유소,,gwangju
해피주유소,광주 광산구 건재로 761,광산구,주유소,,gwangju
태양소금,광주 광산구 계안길 25-9,광산구,기타음료식품,,gwangju
엘리트창호,광주 광산구 계안길 27-6,광산구,기타용역서비스,,gwangju
동화석유,광주 광산구 고내상길 3,광산구,유류판매,,gwangju
동화석유,광주 광산구 고내상길 3,광산구,유류판매,,gwangju
송산승마장,광주 광산구 가삼안길 68-100,광산구,기타레져업,,gwangju
양이랑 말이랑,광주 광산구 가삼안길 68-89,광산구,서양음식,,gwangju
카페양말,광주 광산구 가삼안길 68-89,광산구,서양음식,,gwangju
상쾌한 아침,광주 광산구 가삼안길 69,광산구,일반가구,,gwangju
해피주유소,광주 광산구 건재로 761,광산구,쌍용S-oil주유소,,gwangju
해피주유소,광주 광산구 건재로 761,광산구,주유소,,gwangju
태양소금,광주 광산구 계안길 25-9,광산구,기타음료식품,,gwangju
엘리트창호,광주 광산구 계안길 27-6,광산구,기타용역서비스,,gwangju
동화석유,광주 광산구 고내상길 3,광산구,유류판매,,gwangju
동화석유,광주 광산구 고내상길 3,광산구,유류판매,,gwangju
송산승마장,광주 광산구 가삼안길 68-100,광산구,기타레져업,,gwangju
양이랑 말이랑,광주 광산구 가삼안길 68-89,광산구,서양음식,,gwangju
카페양말,광주 광산구 가삼안길 68-89,광산구,서양음식,,gwangju
상쾌한 아침,광주 광산구 가삼안길 69,광산구,일반가구,,gwangju
해피주유소,광주 광산구 건재로 761,광산구,쌍용S-oil주유소,,gwangju
해피주유소,광주 광산구 건재로 761,광산구,주유소,,gwangju
태양소금,광주 광산구 계안길 25-9,광산구,기타음료식품,,gwangju
엘리트창호,광주 광산구 계안길 27-6,광산구,기타용역서비스,,gwangju
동화석유,광주 광산구 고내상길 3,광산구,유류판매,,gwangju
동화석유,광주 광산구 고내상길 3,광산구,유류판매,,gwangju
송산승마장,광주 광산구 가삼안길 68-100,광산구,기타레져업,,gwangju
양이랑 말이랑,광주 광산구 가삼안길 68-89,광산구,서양음식,,gwangju
카페양말,광주 광산구 가삼안길 68-89,광산구,서양음식,,gwangju
상쾌한 아침,광주 광산구 가삼안길 69,광산구,일반가구,,gwangju
해피주유소,광주 광산구 건재로 761,광산구,쌍용S-oil주유소,,gwangju
해피주유소,광주 광산구 건재로 761,광산구,주유소,,gwangju
태양소금,광주 광산구 계안길 25-9,광산구,기타음료식품,,gwangju
엘리트창호,광주 광산구 계안길 27-6,광산구,기타용역서비스,,gwangju
동화석유,광주 광산구 고내상길 3,광산구,유류판매,,gwangju
동화석유,광주 광산구 고내상길 3,광산구,유류판매,,gwangju
송산승마장,광주 광산구 가삼안길 68-100,광산구,기타레져업,,gwangju
양이랑 말이랑,광주 광산구 가삼안길 68-89,광산구,서양음식,,gwangju
카페양말,광주 광산구 가삼안길 68-89,광산구,서양음식,,gwangju
상쾌한 아침,광주 광산구 가삼안길 69,광산구,일반가구,,gwangju
해피주유소,광주 광산구 건재로 761,광산구,쌍용S-oil주유소,,gwangju
해피주유소,광주 광산구 건재로 761,광산구,주유소,,gwangju
태양소금,광주 광산구 계안길 25-9,광산구,기타음료식품,,gwangju
엘리트창호,광주 광산구 계안길 27-6,광산구,기타용역서비스,,gwangju
동화석유,광주 광산구 고내상길 3,광산구,유류판매,,gwangju
동화석유,광주 광산구 고내상길 3,광산구,유류판매,,gwangju
송산승마장,광주 광산구 가삼안길 68-100,광산구,기타레져업,,gwangju
양이랑 말이랑,광주 광산구 가삼안길 68-89,광산구,서양음식,,gwangju
카페양말,광주 광산구 가삼안길 68-89,광산구,서양음식,,gwangju
상쾌한 아침,광주 광산구 가삼안길 69,광산구,일반가구,,gwangju
해피주유소,광주 광산구 건재로 761,광산구,쌍용S-oil주유소,,gwangju
해피주유소,광주 광산구 건재로 761,광산구,주유소,,gwangju
태양소금,광주 광산구 계안길 25-9,광산구,기타음료식품,,gwangju
엘리트창호,광주 광산구 계안길 27-6,광산구,기타용역서비스,,gwangju
동화석유,광주 광산구 고내상길 3,광산구,유류판매,,gwangju
동화석유,광주 광산구 고내상길 3,광산구,유류판매,,gwangju
송산승마장,광주 광산구 가삼안길 68-100,광산구,기타레져업,,gwangju
양이랑 말이랑,광주 광산구 가삼안길 68-89,광산구,서양음식,,gwangju
카페양말,광주 광산구 가삼안길 68-89,광산구,서양음식,,gwangju
상쾌한 아침,광주 광산구 가삼안길 69,광산구,일반가구,,gwangju
해피주유소,광주 광산구 건재로 761,광산구,쌍용S-oil주유소,,gwangju
해피주유소,광주 광산구 건재로 761,광산구,주유소,,gwangju
태양소금,광주 광산구 계안길 25-9,광산구,기타음료식품,,gwangju
엘리트창호,광주 광산구 계안길 27-6,광산구,기타용역서비스,,gwangju
동화석유,광주 광산구 고내상길 3,광산구,유류판매,,gwangju
동화석유,광주 광산구 고내상길 3,광산구,유류판매,,gwangju
송산승마장,광주 광산구 가삼안길 68-100,광산구,기타레져업,,gwangju
양이랑 말이랑,광주 광산구 가삼안길 68-89,광산구,서양음식,,gwangju
카페양말,광주 광산구 가삼안길 68-89,광산구,서양음식,,gwangju
상쾌한 아침,광주 광산구 가삼안길 69,광산구,일반가구,,gwangju
해피주유소,광주 광산구 건재로 761,광산구,쌍용S-oil주유소,,gwangju
해피주유소,광주 광산구 건재로 761,광산구,주유소,,gwangju
태양소금,광주 광산구 계안길 25-9,광산구,기타음료식품,,gwangju
엘리트창호,광주 광산구 계안길 27-6,광산구,기타용역서비스,,gwangju
동화석유,광주 광산구 고내상길 3,광산구,유류판매,,gwangju
동화석유,광주 광산구 고내상길 3,광산구,유류판매,,gwangju
송산승마장,광주 광산구 가삼안길 68-100,광산구,기타레져업,,gwangju
양이랑 말이랑,광주 광산구 가삼안길 68-89,광산구,서양음식,,gwangju
카페양말,광주 광산구 가삼안길 68-89,광산구,서양음식,,gwangju
상쾌한 아침,광주 광산구 가삼안길 69,광산구,일반가구,,gwangju
해피주유소,광주 광산구 건재로 761,광산구,쌍용S-oil주유소,,gwangju
해피주유소,광주 광산구 건재로 761,광산구,주유소,,gwangju
태양소금,광주 광산구 계안길 25-9,광산구,기타음료식품,,gwangju
엘리트창호,광주 광산구 계안길 27-6,광산구,기타용역서비스,,gwangju
동화석유,광주 광산구 고내상길 3,광산구,유류판매,,gwangju
동화석유,광주 광산구 고내상길 3,광산구,유류판매,,gwangju
송산승마장,광주 광산구 가삼안길 68-100,광산구,기타레져업,,gwangju
양이랑 말이랑,광주 광산구 가삼안길 68-89,광산구,서양음식,,gwangju
카페양말,광주 광산구 가삼안길 68-89,광산구,서양음식,,gwangju
상쾌한 아침,광주 광산구 가삼안길 69,광산구,일반가구,,gwangju
해피주유소,광주 광산구 건재로 761,광산구,쌍용S-oil주유소,,gwangju
해피주유소,광주 광산구 건재로 761,광산구,주유소,,gwangju
태양소금,광주 광산구 계안길 25-9,광산구,기타음료식품,,gwangju
엘리트창호,광주 광산구 계안길 27-6,광산구,기타용역서비스,,gwangju
동화석유,광주 광산구 고내상길 3,광산구,유류판매,,gwangju
동화석유,광주 광산구 고내상길 3,광산구,유류판매,,gwangju
송산승마장,광주 광산구 가삼안길 68-100,광산구,기타레져업,,gwangju
양이랑 말이랑,광주 광산구 가삼안길 68-89,광산구,서양음식,,gwangju
카페양말,광주 광산구 가삼안길 68-89,광산구,서양음식,,gwangju
상쾌한 아침,광주 광산구 가삼안길 69,광산구,일반가구,,gwangju
해피주유소,광주 광산구 건재로 761,광산구,쌍용S-oil주유소,,gwangju
해피주유소,광주 광산구 건재로 761,광산구,주유소,,gwangju
태양소금,광주 광산구 계안길 25-9,광산구,기타음료식품,,gwangju
엘리트창호,광주 광산구 계안길 27-6,광산구,기타용역서비스,,gwangju
동화석유,광주 광산구 고내상길 3,광산구,유류판매,,gwangju
동화석유,광주 광산구 고내상길 3,광산구,유류판매,,gwangju
송산승마장,광주 광산구 가삼안길 68-100,광산구,기타레져업,,gwangju
양이랑 말이랑,광주 광산구 가삼안길 68-89,광산구,서양음식,,gwangju
카페양말,광주 광산구 가삼안길 68-89,광산구,서양음식,,gwangju
상쾌한 아침,광주 광산구 가삼안길 69,광산구,일반가구,,gwangju
해피주유소,광주 광산구 건재로 761,광산구,쌍용S-oil주유소,,gwangju
해피주유소,광주 광산구 건재로 761,광산구,주유소,,gwangju
태양소금,광주 광산구 계안길 25-9,광산구,기타음료식품,,gwangju
엘리트창호,광주 광산구 계안길 27-6,광산구,기타용역서비스,,gwangju
동화석유,광주 광산구 고내상길 3,광산구,유류판매,,gwangju
동화석유,광주 광산구 고내상길 3,광산구,유류판매,,gwangju
송산승마장,광주 광산구 가삼안길 68-100,광산구,기타레져업,,gwangju
양이랑 말이랑,광주 광산구 가삼안길 68-89,광산구,서양음식,,gwangju
카페양말,광주 광산구 가삼안길 68-89,광산구,서양음식,,gwangju
상쾌한 아침,광주 광산구 가삼안길 69,광산구,일반가구,,gwangju
해피주유소,광주 광산구 건재로 761,광산구,쌍용S-oil주유소,,gwangju
해피주유소,광주 광산구 건재로 761,광산구,주유소,,gwangju
태양소금,광주 광산구 계안길 25-9,광산구,기타음료식품,,gwangju
엘리트창호,광주 광산구 계안길 27-6,광산구,기타용역서비스,,gwangju
동화석유,광주 광산구 고내상길 3,광산구,유류판매,,gwangju
동화석유,광주 광산구 고내상길 3,광산구,유류판매,,gwangju
송산승마장,광주 광산구 가삼안길 68-100,광산구,기타레져업,,gwangju
양이랑 말이랑,광주 광산구 가삼안길 68-89,광산구,서양음식,,gwangju
카페양말,광주 광산구 가삼안길 68-89,광산구,서양음식,,gwangju
상쾌한 아침,광주 광산구 가삼안길 69,광산구,일반가구,,gwangju
해피주유소,광주 광산구 건재로 761,광산구,쌍용S-oil주유소,,gwangju
해피주유소,광주 광산구 건재로 761,광산구,주유소,,gwangju
태양소금,광주 광산구 계안길 25-9,광산구,기타음료식품,,gwangju
엘리트창호,광주 광산구 계안길 27-6,광산구,기타용역서비스,,gwangju
동화석유,광주 광산구 고내상길 3,광산구,유류판매,,gwangju
동화석유,광주 광산구 고내상길 3,광산구,유류판매,,gwangju
송산승마장,광주 광산구 가삼안길 68-100,광산구,기타레져업,,gwangju
양이랑 말이랑,광주 광산구 가삼안길 68-89,광산구,서양음식,,gwangju
카페양말,광주 광산구 가삼안길 68-89,광산구,서양음식,,gwangju
상쾌한 아침,광주 광산구 가삼안길 69,광산구,일반가구,,gwangju
해피주유소,광주 광산구 건재로 761,광산구,쌍용S-oil주유소,,gwangju
해피주유소,광주 광산구 건재로 761,광산구,주유소,,gwangju
태양소금,광주 광산구 계안길 25-9,광산구,기타음료식품,,gwangju
엘리트창호,광주 광산구 계안길 27-6,광산구,기타용역서비스,,gwangju
동화석유,광주 광산구 고내상길 3,광산구,유류판매,,gwangju
동화석유,광주 광산구 고내상길 3,광산구,유류판매,,gwangju
송산승마장,광주 광산구 가삼안길 68-100,광산구,기타레져업,,gwangju
양이랑 말이랑,광주 광산구 가삼안길 68-89,광산구,서양음식,,gwangju
카페양말,광주 광산구 가삼안길 68-89,광산구,서양음식,,gwangju
상쾌한 아침,광주 광산구 가삼안길 69,광산구,일반가구,,gwangju
해피주유소,광주 광산구 건재로 761,광산구,쌍용S-oil주유소,,gwangju
해피주유소,광주 광산구 건재로 761,광산구,주유소,,gwangju
태양소금,광주 광산구 계안길 25-9,광산구,기타음료식품,,gwangju
엘리트창호,광주 광산구 계안길 27-6,광산구,기타용역서비스,,gwangju
동화석유,광주 광산구 고내상길 3,광산구,유류판매,,gwangju
동화석유,광주 광산구 고내상길 3,광산구,유류판매,,gwangju
송산승마장,광주 광산구 가삼안길 68-100,광산구,기타레져업,,gwangju
양이랑 말이랑,광주 광산구 가삼안길 68-89,광산구,서양음식,,gwangju
카페양말,광주 광산구 가삼안길 68-89,광산구,서양음식,,gwangju
상쾌한 아침,광주 광산구 가삼안길 69,광산구,일반가구,,gwangju
해피주유소,광주 광산구 건재로 761,광산구,쌍용S-oil주유소,,gwangju
해피주유소,광주 광산구 건재로 761,광산구,주유소,,gwangju
태양소금,광주 광산구 계안길 25-9,광산구,기타음료식품,,gwangju
엘리트창호,광주 광산구 계안길 27-6,광산구,기타용역서비스,,gwangju
동화석유,광주 광산구 고내상길 3,광산구,유류판매,,gwangju
동화석유,광주 광산구 고내상길 3,광산구,유류판매,,gwangju
송산승마장,광주 광산구 가삼안길 68-100,광산구,기타레져업,,gwangju
양이랑 말이랑,광주 광산구 가삼안길 68-89,광산구,서양음식,,gwangju
카페양말,광주 광산구 가삼안길 68-89,광산구,서양음식,,gwangju
상쾌한 아침,광주 광산구 가삼안길 69,광산구,일반가구,,gwangju
해피주유소,광주 광산구 건재로 761,광산구,쌍용S-oil주유소,,gwangju
해피주유소,광주 광산구 건재로 761,광산구,주유소,,gwangju
태양소금,광주 광산구 계안길 25-9,광산구,기타음료식품,,gwangju
엘리트창호,광주 광산구 계안길 27-6,광산구,기타용역서비스,,gwangju
동화석유,광주 광산구 고내상길 3,광산구,유류판매,,gwangju
동화석유,광주 광산구 고내상길 3,광산구,유류판매,,gwangju
송산승마장,광주 광산구 가삼안길 68-100,광산구,기타레져업,,gwangju
양이랑 말이랑,광주 광산구 가삼안길 68-89,광산구,서양음식,,gwangju
카페양말,광주 광산구 가삼안길 68-89,광산구,서양음식,,gwangju
상쾌한 아침,광주 광산구 가삼안길 69,광산구,일반가구,,gwangju
해피주유소,광주 광산구 건재로 761,광산구,쌍용S-oil주유소,,gwangju
해피주유소,광주 광산구 건재로 761,광산구,주유소,,gwangju
태양소금,광주 광산구 계안길 25-9,광산구,기타음료식품,,gwangju
엘리트창호,광주 광산구 계안길 27-6,광산구,기타용역서비스,,gwangju
동화석유,광주 광산구 고내상길 3,광산구,유류판매,,gwangju
동화석유,광주 광산구 고내상길 3,광산구,유류판매,,gwangju
송산승마장,광주 광산구 가삼안길 68-100,광산구,기타레져업,,gwangju
양이랑 말이랑,광주 광산구 가삼안길 68-89,광산구,서양음식,,gwangju
카페양말,광주 광산구 가삼안길 68-89,광산구,서양음식,,gwangju
상쾌한 아침,광주 광산구 가삼안길 69,광산구,일반가구,,gwangju
해피주유소,광주 광산구 건재로 761,광산구,쌍용S-oil주유소,,gwangju
해피주유소,광주 광산구 건재로 761,광산구,주유소,,gwangju
태양소금,광주 광산구 계안길 25-9,광산구,기타음료식품,,gwangju
엘리트창호,광주 광산구 계안길 27-6,광산구,기타용역서비스,,gwangju
동화석유,광주 광산구 고내상길 3,광산구,유류판매,,gwangju
동화석유,광주 광산구 고내상길 3,광산구,유류판매,,gwangju
송산승마장,광주 광산구 가삼안길 68-100,광산구,기타레져업,,gwangju
양이랑 말이랑,광주 광산구 가삼안길 68-89,광산구,서양음식,,gwangju
카페양말,광주 광산구 가삼안길 68-89,광산구,서양음식,,gwangju
상쾌한 아침,광주 광산구 가삼안길 69,광산구,일반가구,,gwangju
해피주유소,광주 광산구 건재로 761,광산구,쌍용S-oil주유소,,gwangju
해피주유소,광주 광산구 건재로 761,광산구,주유소,,gwangju
태양소금,광주 광산구 계안길 25-9,광산구,기타음료식품,,gwangju
엘리트창호,광주 광산구 계안길 27-6,광산구,기타용역서비스,,gwangju
동화석유,광주 광산구 고내상길 3,광산구,유류판매,,gwangju
동화석유,광주 광산구 고내상길 3,광산구,유류판매,,gwangju
송산승마장,광주 광산구 가삼안길 68-100,광산구,기타레져업,,gwangju
양이랑 말이랑,광주 광산구 가삼안길 68-89,광산구,서양음식,,gwangju
카페양말,광주 광산구 가삼안길 68-89,광산구,서양음식,,gwangju
상쾌한 아침,광주 광산구 가삼안길 69,광산구,일반가구,,gwangju
해피주유소,광주 광산구 건재로 761,광산구,쌍용S-oil주유소,,gwangju
해피주유소,광주 광산구 건재로 761,광산구,주유소,,gwangju
태양소금,광주 광산구 계안길 25-9,광산구,기타음료식품,,gwangju
엘리트창호,광주 광산구 계안길 27-6,광산구,기타용역서비스,,gwangju
동화석유,광주 광산구 고내상길 3,광산구,유류판매,,gwangju
동화석유,광주 광산구 고내상길 3,광산구,유류판매,,gwangju
송산승마장,광주 광산구 가삼안길 68-100,광산구,기타레져업,,gwangju
양이랑 말이랑,광주 광산구 가삼안길 68-89,광산구,서양음식,,gwangju
카페양말,광주 광산구 가삼안길 68-89,광산구,서양음식,,gwangju
상쾌한 아침,광주 광산구 가삼안길 69,광산구,일반가구,,gwangju
해피주유소,광주 광산구 건재로 761,광산구,쌍용S-oil주유소,,gwangju
해피주유소,광주 광산구 건재로 761,광산구,주유소,,gwangju
태양소금,광주 광산구 계안길 25-9,광산구,기타음료식품,,gwangju
엘리트창호,광주 광산구 계안길 27-6,광산구,기타용역서비스,,gwangju
동화석유,광주 광산구 고내상길 3,광산구,유류판매,,gwangju
동화석유,광주 광산구 고내상길 3,광산구,유류판매,,gwangju
송산승마장,광주 광산구 가삼안길 68-100,광산구,기타레져업,,gwangju
양이랑 말이랑,광주 광산구 가삼안길 68-89,광산구,서양음식,,gwangju
카페양말,광주 광산구 가삼안길 68-89,광산구,서양음식,,gwangju
상쾌한 아침,광주 광산구 가삼안길 69,광산구,일반가구,,gwangju
해피주유소,광주 광산구 건재로 761,광산구,쌍용S-oil주유소,,gwangju
해피주유소,광주 광산구 건재로 761,광산구,주유소,,gwangju
태양소금,광주 광산구 계안길 25-9,광산구,기타음료식품,,gwangju
엘리트창호,광주 광산구 계안길 27-6,광산구,기타용역서비스,,gwangju
동화석유,광주 광산구 고내상길 3,광산구,유류판매,,gwangju
동화석유,광주 광산구 고내상길 3,광산구,유류판매,,gwangju
송산승마장,광주 광산구 가삼안길 68-100,광산구,기타레져업,,gwangju
양이랑 말이랑,광주 광산구 가삼안길 68-89,광산구,서양음식,,gwangju
카페양말,광주 광산구 가삼안길 68-89,광산구,서양음식,,gwangju
상쾌한 아침,광주 광산구 가삼안길 69,광산구,일반가구,,gwangju
해피주유소,광주 광산구 건재로 761,광산구,쌍용S-oil주유소,,gwangju
해피주유소,광주 광산구 건재로 761,광산구,주유소,,gwangju
태양소금,광주 광산구 계안길 25-9,광산구,기타음료식품,,gwangju
엘리트창호,광주 광산구 계안길 27-6,광산구,기타용역서비스,,gwangju
동화석유,광주 광산구 고내상길 3,광산구,유류판매,,gwangju
동화석유,광주 광산구 고내상길 3,광산구,유류판매,,gwangju
송산승마장,광주 광산구 가삼안길 68-100,광산구,기타레져업,,gwangju
양이랑 말이랑,광주 광산구 가삼안길 68-89,광산구,서양음식,,gwangju
카페양말,광주 광산구 가삼안길 68-89,광산구,서양음식,,gwangju
상쾌한 아침,광주 광산구 가삼안길 69,광산구,일반가구,,gwangju
해피주유소,광주 광산구 건재로 761,광산구,쌍용S-oil주유소,,gwangju
해피주유소,광주 광산구 건재로 761,광산구,주유소,,gwangju
태양소금,광주 광산구 계안길 25-9,광산구,기타음료식품,,gwangju
엘리트창호,광주 광산구 계안길 27-6,광산구,기타용역서비스,,gwangju
동화석유,광주 광산구 고내상길 3,광산구,유류판매,,gwangju
동화석유,광주 광산구 고내상길 3,광산구,유류판매,,gwangju
송산승마장,광주 광산구 가삼안길 68-100,광산구,기타레져업,,gwangju
양이랑 말이랑,광주 광산구 가삼안길 68-89,광산구,서양음식,,gwangju
카페양말,광주 광산구 가삼안길 68-89,광산구,서양음식,,gwangju
상쾌한 아침,광주 광산구 가삼안길 69,광산구,일반가구,,gwangju
해피주유소,광주 광산구 건재로 761,광산구,쌍용S-oil주유소,,gwangju
해피주유소,광주 광산구 건재로 761,광산구,주유소,,gwangju
태양소금,광주 광산구 계안길 25-9,광산구,기타음료식품,,gwangju
엘리트창호,광주 광산구 계안길 27-6,광산구,기타용역서비스,,gwangju
동화석유,광주 광산구 고내상길 3,광산구,유류판매,,gwangju
동화석유,광주 광산구 고내상길 3,광산구,유류판매,,gwangju
송산승마장,광주 광산구 가삼안길 68-100,광산구,기타레져업,,gwangju
양이랑 말이랑,광주 광산구 가삼안길 68-89,광산구,서양음식,,gwangju
카페양말,광주 광산구 가삼안길 68-89,광산구,서양음식,,gwangju
상쾌한 아침,광주 광산구 가삼안길 69,광산구,일반가구,,gwangju
해피주유소,광주 광산구 건재로 761,광산구,쌍용S-oil주유소,,gwangju
해피주유소,광주 광산구 건재로 761,광산구,주유소,,gwangju
태양소금,광주 광산구 계안길 25-9,광산구,기타음료식품,,gwangju
엘리트창호,광주 광산구 계안길 27-6,광산구,기타용역서비스,,gwangju
동화석유,광주 광산구 고내상길 3,광산구,유류판매,,gwangju
동화석유,광주 광산구 고내상길 3,광산구,유류판매,,gwangju
송산승마장,광주 광산구 가삼안길 68-100,광산구,기타레져업,,gwangju
양이랑 말이랑,광주 광산구 가삼안길 68-89,광산구,서양음식,,gwangju
카페양말,광주 광산구 가삼안길 68-89,광산구,서양음식,,gwangju
상쾌한 아침,광주 광산구 가삼안길 69,광산구,일반가구,,gwangju
해피주유소,광주 광산구 건재로 761,광산구,쌍용S-oil주유소,,gwangju
해피주유소,광주 광산구 건재로 761,광산구,주유소,,gwangju
태양소금,광주 광산구 계안길 25-9,광산구,기타음료식품,,gwangju
엘리트창호,광주 광산구 계안길 27-6,광산구,기타용역서비스,,gwangju
동화석유,광주 광산구 고내상길 3,광산구,유류판매,,gwangju
동화석유,광주 광산구 고내상길 3,광산구,유류판매,,gwangju
